[{"OBJECT_NAME":"ONEWEB-0083","OBJECT_ID":"2020-020M","EPOCH":"2025-12-23T04:36:21.921696","MEAN_MOTION":13.11414654,"ECCENTRICITY":0.00017501,"INCLINATION":87.8855,"RA_OF_ASC_NODE":56.0971,"ARG_OF_PERICENTER":99.4128,"MEAN_ANOMALY":260.7198,"EPHEMERIS_TYPE":0,"CLASSIFICATION_TYPE":"U","NORAD_CAT_ID":45435,"ELEMENT_SET_NO":999,"REV_AT_EPOCH":27960,"BSTAR":-0.0012949765,"MEAN_MOTION_DOT":-4.46e-6,"MEAN_MOTION_DDOT":0},{"OBJECT_NAME":"ONEWEB-0095","OBJECT_ID":"2020-020N","EPOCH":"2025-12-23T04:23:09.047040","MEAN_MOTION":13.11414639,"ECCENTRICITY":0.00016307,"INCLINATION":87.8847,"RA_OF_ASC_NODE":56.1096,"ARG_OF_PERICENTER":128.0889,"MEAN_ANOMALY":232.0386,"EPHEMERIS_TYPE":0,"CLASSIFICATION_TYPE":"U","NORAD_CAT_ID":45436,"ELEMENT_SET_NO":999,"REV_AT_EPOCH":27960,"BSTAR":-0.00048706969,"MEAN_MOTION_DOT":-1.6e-6,"MEAN_MOTION_DDOT":0},{"OBJECT_NAME":"ONEWEB-0092","OBJECT_ID":"2020-020P","EPOCH":"2025-12-23T03:42:41.223456","MEAN_MOTION":13.11416253,"ECCENTRICITY":0.00017461,"INCLINATION":87.8852,"RA_OF_ASC_NODE":56.1143,"ARG_OF_PERICENTER":109.0574,"MEAN_ANOMALY":251.0743,"EPHEMERIS_TYPE":0,"CLASSIFICATION_TYPE":"U","NORAD_CAT_ID":45437,"ELEMENT_SET_NO":999,"REV_AT_EPOCH":27971,"BSTAR":0.0013050948,"MEAN_MOTION_DOT":4.75e-6,"MEAN_MOTION_DDOT":0},{"OBJECT_NAME":"ONEWEB-0085","OBJECT_ID":"2020-020Q","EPOCH":"2025-12-23T04:35:08.315808","MEAN_MOTION":13.11414407,"ECCENTRICITY":0.00018035,"INCLINATION":87.8847,"RA_OF_ASC_NODE":56.1153,"ARG_OF_PERICENTER":102.7426,"MEAN_ANOMALY":257.3904,"EPHEMERIS_TYPE":0,"CLASSIFICATION_TYPE":"U","NORAD_CAT_ID":45438,"ELEMENT_SET_NO":999,"REV_AT_EPOCH":27960,"BSTAR":-0.0010069211,"MEAN_MOTION_DOT":-3.44e-6,"MEAN_MOTION_DDOT":0},{"OBJECT_NAME":"ONEWEB-0096","OBJECT_ID":"2020-020R","EPOCH":"2025-12-23T04:37:35.025600","MEAN_MOTION":13.1141522,"ECCENTRICITY":0.00018515,"INCLINATION":87.8856,"RA_OF_ASC_NODE":56.0961,"ARG_OF_PERICENTER":102.1973,"MEAN_ANOMALY":257.9362,"EPHEMERIS_TYPE":0,"CLASSIFICATION_TYPE":"U","NORAD_CAT_ID":45439,"ELEMENT_SET_NO":999,"REV_AT_EPOCH":27959,"BSTAR":-0.0012316452,"MEAN_MOTION_DOT":-4.24e-6,"MEAN_MOTION_DDOT":0},{"OBJECT_NAME":"ONEWEB-0037","OBJECT_ID":"2020-020S","EPOCH":"2025-12-23T04:09:31.479264","MEAN_MOTION":13.11413491,"ECCENTRICITY":0.00017981,"INCLINATION":87.8861,"RA_OF_ASC_NODE":56.0703,"ARG_OF_PERICENTER":107.0395,"MEAN_ANOMALY":253.093,"EPHEMERIS_TYPE":0,"CLASSIFICATION_TYPE":"U","NORAD_CAT_ID":45440,"ELEMENT_SET_NO":999,"REV_AT_EPOCH":27962,"BSTAR":0.00097584152,"MEAN_MOTION_DOT":3.59e-6,"MEAN_MOTION_DDOT":0},{"OBJECT_NAME":"ONEWEB-0042","OBJECT_ID":"2020-020T","EPOCH":"2025-12-23T04:22:44.479200","MEAN_MOTION":13.11413382,"ECCENTRICITY":0.00018314,"INCLINATION":87.8856,"RA_OF_ASC_NODE":56.0975,"ARG_OF_PERICENTER":105.0974,"MEAN_ANOMALY":255.0357,"EPHEMERIS_TYPE":0,"CLASSIFICATION_TYPE":"U","NORAD_CAT_ID":45441,"ELEMENT_SET_NO":999,"REV_AT_EPOCH":27959,"BSTAR":-0.00041929716,"MEAN_MOTION_DOT":-1.36e-6,"MEAN_MOTION_DDOT":0},{"OBJECT_NAME":"ONEWEB-0098","OBJECT_ID":"2020-020U","EPOCH":"2025-12-23T04:16:50.943360","MEAN_MOTION":13.11413438,"ECCENTRICITY":0.00017389,"INCLINATION":87.8852,"RA_OF_ASC_NODE":56.11,"ARG_OF_PERICENTER":99.7918,"MEAN_ANOMALY":260.3406,"EPHEMERIS_TYPE":0,"CLASSIFICATION_TYPE":"U","NORAD_CAT_ID":45442,"ELEMENT_SET_NO":999,"REV_AT_EPOCH":27957,"BSTAR":0.00013379414,"MEAN_MOTION_DOT":6.0e-7,"MEAN_MOTION_DDOT":0},{"OBJECT_NAME":"ONEWEB-0055","OBJECT_ID":"2020-020V","EPOCH":"2025-12-23T03:52:26.742432","MEAN_MOTION":13.11415069,"ECCENTRICITY":0.00016958,"INCLINATION":87.8851,"RA_OF_ASC_NODE":56.1139,"ARG_OF_PERICENTER":99.4941,"MEAN_ANOMALY":260.6379,"EPHEMERIS_TYPE":0,"CLASSIFICATION_TYPE":"U","NORAD_CAT_ID":45443,"ELEMENT_SET_NO":999,"REV_AT_EPOCH":27954,"BSTAR":0.0016093544,"MEAN_MOTION_DOT":5.83e-6,"MEAN_MOTION_DDOT":0},{"OBJECT_NAME":"ONEWEB-0093","OBJECT_ID":"2020-020W","EPOCH":"2025-12-23T05:07:05.797056","MEAN_MOTION":13.11419912,"ECCENTRICITY":0.00022284,"INCLINATION":87.8856,"RA_OF_ASC_NODE":56.091,"ARG_OF_PERICENTER":103.68,"MEAN_ANOMALY":256.4576,"EPHEMERIS_TYPE":0,"CLASSIFICATION_TYPE":"U","NORAD_CAT_ID":45444,"ELEMENT_SET_NO":999,"REV_AT_EPOCH":27961,"BSTAR":-0.00020839226,"MEAN_MOTION_DOT":-6.1e-7,"MEAN_MOTION_DDOT":0},{"OBJECT_NAME":"ONEWEB-0029","OBJECT_ID":"2020-020X","EPOCH":"2025-12-23T05:30:05.366592","MEAN_MOTION":13.11419315,"ECCENTRICITY":0.00018832,"INCLINATION":87.8856,"RA_OF_ASC_NODE":56.1002,"ARG_OF_PERICENTER":99.3839,"MEAN_ANOMALY":260.7502,"EPHEMERIS_TYPE":0,"CLASSIFICATION_TYPE":"U","NORAD_CAT_ID":45445,"ELEMENT_SET_NO":999,"REV_AT_EPOCH":27959,"BSTAR":0.0011645984,"MEAN_MOTION_DOT":4.25e-6,"MEAN_MOTION_DDOT":0},{"OBJECT_NAME":"ONEWEB-0068","OBJECT_ID":"2020-020Y","EPOCH":"2025-12-23T05:06:41.535936","MEAN_MOTION":13.11419197,"ECCENTRICITY":0.00019509,"INCLINATION":87.8856,"RA_OF_ASC_NODE":56.0927,"ARG_OF_PERICENTER":99.1047,"MEAN_ANOMALY":261.0302,"EPHEMERIS_TYPE":0,"CLASSIFICATION_TYPE":"U","NORAD_CAT_ID":45446,"ELEMENT_SET_NO":999,"REV_AT_EPOCH":27953,"BSTAR":-0.001047916,"MEAN_MOTION_DOT":-3.59e-6,"MEAN_MOTION_DDOT":0},{"OBJECT_NAME":"ONEWEB-0046","OBJECT_ID":"2020-020Z","EPOCH":"2025-12-23T04:54:41.809248","MEAN_MOTION":13.11417773,"ECCENTRICITY":0.00019426,"INCLINATION":87.8856,"RA_OF_ASC_NODE":56.1024,"ARG_OF_PERICENTER":107.1477,"MEAN_ANOMALY":252.9863,"EPHEMERIS_TYPE":0,"CLASSIFICATION_TYPE":"U","NORAD_CAT_ID":45447,"ELEMENT_SET_NO":999,"REV_AT_EPOCH":27954,"BSTAR":-0.0010323379,"MEAN_MOTION_DOT":-3.53e-6,"MEAN_MOTION_DDOT":0},{"OBJECT_NAME":"ONEWEB-0063","OBJECT_ID":"2020-020AA","EPOCH":"2025-12-23T03:46:19.898400","MEAN_MOTION":13.11416717,"ECCENTRICITY":0.00018257,"INCLINATION":87.8855,"RA_OF_ASC_NODE":56.1094,"ARG_OF_PERICENTER":108.9337,"MEAN_ANOMALY":251.1989,"EPHEMERIS_TYPE":0,"CLASSIFICATION_TYPE":"U","NORAD_CAT_ID":45448,"ELEMENT_SET_NO":999,"REV_AT_EPOCH":27962,"BSTAR":0.00066942928,"MEAN_MOTION_DOT":2.5e-6,"MEAN_MOTION_DDOT":0},{"OBJECT_NAME":"ONEWEB-0019","OBJECT_ID":"2020-020AB","EPOCH":"2025-12-23T04:45:48.091392","MEAN_MOTION":13.11992166,"ECCENTRICITY":0.00017021,"INCLINATION":87.8838,"RA_OF_ASC_NODE":56.105,"ARG_OF_PERICENTER":98.7006,"MEAN_ANOMALY":261.4315,"EPHEMERIS_TYPE":0,"CLASSIFICATION_TYPE":"U","NORAD_CAT_ID":45449,"ELEMENT_SET_NO":999,"REV_AT_EPOCH":27947,"BSTAR":-0.0012189487,"MEAN_MOTION_DOT":-4.23e-6,"MEAN_MOTION_DDOT":0},{"OBJECT_NAME":"ONEWEB-0094","OBJECT_ID":"2020-020AC","EPOCH":"2025-12-23T04:23:22.531488","MEAN_MOTION":13.17647504,"ECCENTRICITY":0.00018707,"INCLINATION":87.911,"RA_OF_ASC_NODE":40.8294,"ARG_OF_PERICENTER":94.9583,"MEAN_ANOMALY":265.1762,"EPHEMERIS_TYPE":0,"CLASSIFICATION_TYPE":"U","NORAD_CAT_ID":45450,"ELEMENT_SET_NO":999,"REV_AT_EPOCH":28313,"BSTAR":0.0002438057,"MEAN_MOTION_DOT":1.08e-6,"MEAN_MOTION_DDOT":0}]
