ONEWEB-0083             
1 45435U 20020M   25357.19192039 -.00000446  00000+0 -12950-2 0  9995
2 45435  87.8855  56.0971 0001750  99.4128 260.7198 13.11414654279605
ONEWEB-0095             
1 45436U 20020N   25357.18274360 -.00000160  00000+0 -48707-3 0  9996
2 45436  87.8847  56.1096 0001630 128.0889 232.0386 13.11414639279600
ONEWEB-0092             
1 45437U 20020P   25357.15464379  .00000475  00000+0  13051-2 0  9995
2 45437  87.8852  56.1143 0001746 109.0574 251.0743 13.11416253279712
ONEWEB-0085             
1 45438U 20020Q   25357.19106847 -.00000344  00000+0 -10069-2 0  9996
2 45438  87.8847  56.1153 0001803 102.7426 257.3904 13.11414407279603
ONEWEB-0096             
1 45439U 20020R   25357.19276650 -.00000424  00000+0 -12316-2 0  9993
2 45439  87.8856  56.0961 0001851 102.1973 257.9362 13.11415220279590
ONEWEB-0037             
1 45440U 20020S   25357.17328101  .00000359  00000+0  97584-3 0  9998
2 45440  87.8861  56.0703 0001798 107.0395 253.0930 13.11413491279624
ONEWEB-0042             
1 45441U 20020T   25357.18245925 -.00000136  00000+0 -41930-3 0  9991
2 45441  87.8856  56.0975 0001831 105.0974 255.0357 13.11413382279599
ONEWEB-0098             
1 45442U 20020U   25357.17836740  .00000060  00000+0  13379-3 0  9992
2 45442  87.8852  56.1100 0001738  99.7918 260.3406 13.11413438279574
ONEWEB-0055             
1 45443U 20020V   25357.16142063  .00000583  00000+0  16094-2 0  9996
2 45443  87.8851  56.1139 0001695  99.4941 260.6379 13.11415069279542
ONEWEB-0093             
1 45444U 20020W   25357.21326154 -.00000061  00000+0 -20839-3 0  9994
2 45444  87.8856  56.0910 0002228 103.6800 256.4576 13.11419912279610
ONEWEB-0029             
1 45445U 20020X   25357.22922878  .00000425  00000+0  11646-2 0  9998
2 45445  87.8856  56.1002 0001883  99.3839 260.7502 13.11419315279594
ONEWEB-0068             
1 45446U 20020Y   25357.21298074 -.00000359  00000+0 -10479-2 0  9993
2 45446  87.8856  56.0927 0001950  99.1047 261.0302 13.11419197279538
ONEWEB-0046             
1 45447U 20020Z   25357.20465057 -.00000353  00000+0 -10323-2 0  9992
2 45447  87.8856  56.1024 0001942 107.1477 252.9863 13.11417773279546
ONEWEB-0063             
1 45448U 20020AA  25357.15717475  .00000250  00000+0  66943-3 0  9995
2 45448  87.8855  56.1094 0001825 108.9337 251.1989 13.11416717279623
ONEWEB-0019             
1 45449U 20020AB  25357.19847328 -.00000423  00000+0 -12189-2 0  9997
2 45449  87.8838  56.1050 0001702  98.7006 261.4315 13.11992166279477
ONEWEB-0094             
1 45450U 20020AC  25357.18289967  .00000108  00000+0  24381-3 0  9993
2 45450  87.9110  40.8294 0001870  94.9583 265.1762 13.17647504283131
